NORAD_CAT_ID,OBJECT_NAME,OBJECT_TYPE,EPOCH,MEAN_MOTION,ECCENTRICITY,INCLINATION,RA_OF_ASC_NODE,ARG_OF_PERICENTER,MEAN_ANOMALY,BSTAR,MEAN_MOTION_DOT,MEAN_MOTION_DDOT,TLE_LINE0,TLE_LINE1,TLE_LINE2,SEMIMAJOR_AXIS,PERIOD,APOGEE,PERIGEE,DECAYED
54070.0,STARLINK-5181,PAYLOAD,2023-09-29 14:29:40,15.08847067,0.0001566,53.2197,28.5416,82.1689,277.9481,2.7574e-05,1.51e-06,0.0,0 STARLINK-5181,1 54070U 22136V   23272.60394348  .00000151  00000-0  27574-4 0  9999,2 54070  53.2197  28.5416 0001566  82.1689 277.9481 15.08847067 52172,6917.859,95.437,540.807,538.64,0.0
54070.0,STARLINK-5181,PAYLOAD,2023-09-29 19:15:49,15.08859021,0.000139,53.2191,27.6476,95.9196,264.1954,9.3137e-05,1.195e-05,0.0,0 STARLINK-5181,1 54070U 22136V   23272.80265070  .00001195  00000-0  93137-4 0  9997,2 54070  53.2191  27.6476 0001390  95.9196 264.1954 15.08859021 52684,6917.822,95.436,540.649,538.726,0.0
54070.0,STARLINK-5181,PAYLOAD,2023-09-30 07:58:55,15.08832704,0.0001399,53.2199,25.2768,67.8692,292.2449,2.7886e-05,1.56e-06,0.0,0 STARLINK-5181,1 54070U 22136V   23273.33259226  .00000156  00000-0  27886-4 0  9996,2 54070  53.2199  25.2768 0001399  67.8692 292.2449 15.08832704 52767,6917.903,95.438,540.736,538.8,0.0
54070.0,STARLINK-5181,PAYLOAD,2023-09-30 14:20:27,15.08844583,0.0001451,53.2187,24.0832,82.659,277.4567,0.00012033,1.628e-05,0.0,0 STARLINK-5181,1 54070U 22136V   23273.59754204  .00001628  00000-0  12033-3 0  9992,2 54070  53.2187  24.0832 0001451  82.6590 277.4567 15.08844583 52803,6917.866,95.437,540.735,538.728,0.0
54070.0,STARLINK-5181,PAYLOAD,2023-10-01 14:11:13,15.08863316,0.0001382,53.2182,19.6209,90.2603,269.8548,0.00025654,3.8e-05,0.0,0 STARLINK-5181,1 54070U 22136V   23274.59112967  .00003800  00000-0  25654-3 0  9994,2 54070  53.2182  19.6209 0001382  90.2603 269.8548 15.08863316 52471,6917.809,95.436,540.63,538.718,0.0
54070.0,STARLINK-5181,PAYLOAD,2023-10-01 23:43:32,15.08851606,0.000144,53.2187,17.8368,84.4338,275.6819,2.7674e-05,1.53e-06,0.0,0 STARLINK-5181,1 54070U 22136V   23274.98857206  .00000153  00000-0  27674-4 0  9992,2 54070  53.2187  17.8368 0001440  84.4338 275.6819 15.08851606 53013,6917.845,95.437,540.706,538.714,0.0
54070.0,STARLINK-5181,PAYLOAD,2023-10-02 12:26:39,15.08826931,0.0001528,53.219,15.4595,88.2704,271.8464,-0.00019708,-3.422e-05,0.0,0 STARLINK-5181,1 54070U 22136V   23275.51850883 -.00003422  00000-0 -19708-3 0  9998,2 54070  53.2190  15.4595 0001528  88.2704 271.8464 15.08826931 53094,6917.92,95.438,540.842,538.728,0.0
54070.0,STARLINK-5181,PAYLOAD,2023-10-02 17:12:48,15.08836982,0.0001429,53.2184,14.5649,74.237,285.8779,-4.4379e-05,-9.94e-06,0.0,0 STARLINK-5181,1 54070U 22136V   23275.71722451 -.00000994  00000-0 -44379-4 0  9993,2 54070  53.2184  14.5649 0001429  74.2370 285.8779 15.08836982 53126,6917.89,95.438,540.743,538.766,0.0
54070.0,STARLINK-5181,PAYLOAD,2023-10-03 13:52:48,15.0885149,0.0001387,53.2176,10.7003,82.7775,277.3375,0.00029847,4.467e-05,0.0,0 STARLINK-5181,1 54070U 22136V   23276.57834131  .00004467  00000-0  29847-3 0  9996,2 54070  53.2176  10.7003 0001387  82.7775 277.3375 15.08851490 52774,6917.845,95.437,540.67,538.751,0.0
54070.0,STARLINK-5181,PAYLOAD,2023-10-03 18:38:57,15.08858156,0.0001219,53.2172,9.8058,99.4821,260.6309,0.00046304,7.093e-05,0.0,0 STARLINK-5181,1 54070U 22136V   23276.77705661  .00007093  00000-0  46304-3 0  9998,2 54070  53.2172   9.8058 0001219  99.4821 260.6309 15.08858156 53285,6917.825,95.436,540.533,538.847,0.0
54070.0,STARLINK-5181,PAYLOAD,2023-10-04 10:32:50,15.08833768,0.0001868,53.2172,6.8404,53.6883,306.4281,0.00015517,2.182e-05,0.0,0 STARLINK-5181,1 54070U 22136V   23277.43947377  .00002182  00000-0  15517-3 0  9990,2 54070  53.2172   6.8404 0001868  53.6883 306.4281 15.08833768 53388,6917.899,95.438,541.057,538.472,0.0
54070.0,STARLINK-5181,PAYLOAD,2023-10-04 13:43:35,15.08853288,0.000157,53.2185,6.2405,77.873,282.2438,0.00042265,6.447e-05,0.0,0 STARLINK-5181,1 54070U 22136V   23277.57194398  .00006447  00000-0  42265-3 0  9990,2 54070  53.2185   6.2405 0001570  77.8730 282.2438 15.08853288 52929,6917.84,95.437,540.791,538.619,0.0
54070.0,STARLINK-5181,PAYLOAD,2023-10-04 18:29:44,15.08865026,0.0001276,53.2179,5.3444,104.5514,255.562,0.00059752,9.241e-05,0.0,0 STARLINK-5181,1 54070U 22136V   23277.77065612  .00009241  00000-0  59752-3 0  9992,2 54070  53.2179   5.3444 0001276 104.5514 255.5620 15.08865026 52958,6917.804,95.436,540.552,538.786,0.0
54070.0,STARLINK-5181,PAYLOAD,2023-10-05 10:23:37,15.08832348,0.0001767,53.2157,2.3819,44.5411,315.5723,-2.5775e-05,-6.98e-06,0.0,0 STARLINK-5181,1 54070U 22136V   23278.43307081 -.00000698  00000-0 -25775-4 0  9993,2 54070  53.2157   2.3819 0001767  44.5411 315.5723 15.08832348 53538,6917.904,95.438,540.991,538.546,0.0
54070.0,STARLINK-5181,PAYLOAD,2023-10-05 11:58:59,15.08847921,0.0001622,53.2177,2.0752,100.8365,259.281,0.00054066,8.329e-05,0.0,0 STARLINK-5181,1 54070U 22136V   23278.49930526  .00008329  00000-0  54066-3 0  9996,2 54070  53.2177   2.0752 0001622 100.8365 259.2810 15.08847921 53069,6917.856,95.437,540.843,538.599,0.0
54070.0,STARLINK-5181,PAYLOAD,2023-10-06 10:14:24,15.08838319,0.0001583,53.218,357.9113,113.5463,246.5696,0.00048191,7.39e-05,0.0,0 STARLINK-5181,1 54070U 22136V   23279.42667099  .00007390  00000-0  48191-3 0  9991,2 54070  53.2180 357.9113 0001583 113.5463 246.5696 15.08838319 53682,6917.886,95.438,540.846,538.655,0.0
54070.0,STARLINK-5181,PAYLOAD,2023-10-06 11:49:47,15.08840063,0.0001356,53.218,357.6163,96.4115,263.7031,0.00055615,8.574e-05,0.0,0 STARLINK-5181,1 54070U 22136V   23279.49291309  .00008574  00000-0  55615-3 0  9999,2 54070  53.2180 357.6163 0001356  96.4115 263.7031 15.08840063 53217,6917.88,95.438,540.683,538.807,0.0
54070.0,STARLINK-5181,PAYLOAD,2023-10-06 16:35:56,15.08854089,0.0001202,53.218,356.7224,95.5562,264.5567,0.0010503,0.00016473,0.0,0 STARLINK-5181,1 54070U 22136V   23279.69163033  .00016473  00000-0  10503-2 0  9996,2 54070  53.2180 356.7224 0001202  95.5562 264.5567 15.08854089 53240,6917.837,95.437,540.534,538.871,0.0
54070.0,STARLINK-5181,PAYLOAD,2023-10-07 10:05:11,15.08847432,0.0001241,53.2175,353.4541,91.8347,268.2787,0.0010521,0.00016499,0.0,0 STARLINK-5181,1 54070U 22136V   23280.42027285  .00016499  00000-0  10521-2 0  9995,2 54070  53.2175 353.4541 0001241  91.8347 268.2787 15.08847432 53837,6917.858,95.437,540.581,538.864,0.0
54070.0,STARLINK-5181,PAYLOAD,2023-10-07 11:40:34,15.08850654,0.0001309,53.2174,353.1578,90.65,269.4642,0.00084884,0.00013251,0.0,0 STARLINK-5181,1 54070U 22136V   23280.48651217  .00013251  00000-0  84884-3 0  9996,2 54070  53.2174 353.1578 0001309  90.6500 269.4642 15.08850654 53367,6917.848,95.437,540.618,538.807,0.0
54070.0,STARLINK-5181,PAYLOAD,2023-10-08 09:55:58,15.08843611,0.0001485,53.219,348.9917,108.6982,251.4171,0.00049381,7.581e-05,0.0,0 STARLINK-5181,1 54070U 22136V   23281.41387305  .00007581  00000-0  49381-3 0  9996,2 54070  53.2190 348.9917 0001485 108.6982 251.4171 15.08843611 53984,6917.869,95.437,540.762,538.707,0.0
54070.0,STARLINK-5181,PAYLOAD,2023-10-08 11:31:21,15.08846288,0.0001207,53.2179,348.6963,68.5392,291.5729,0.00044937,6.872e-05,0.0,0 STARLINK-5181,1 54070U 22136V   23281.48011370  .00006872  00000-0  44937-3 0  9993,2 54070  53.2179 348.6963 0001207  68.5392 291.5729 15.08846288 53516,6917.861,95.437,540.561,538.891,0.0
54070.0,STARLINK-5181,PAYLOAD,2023-10-08 21:03:40,15.08842309,0.0001185,53.218,346.9129,64.9623,295.1492,0.0003406,5.137e-05,0.0,0 STARLINK-5181,1 54070U 22136V   23281.87755520  .00005137  00000-0  34060-3 0  9997,2 54070  53.2180 346.9129 0001185  64.9623 295.1492 15.08842309 53578,6917.873,95.437,540.558,538.919,0.0
54070.0,STARLINK-5181,PAYLOAD,2023-10-09 11:22:08,15.08847379,0.0001327,53.2185,344.2389,79.9407,280.1735,0.00022562,3.305e-05,0.0,0 STARLINK-5181,1 54070U 22136V   23282.47371348  .00003305  00000-0  22562-3 0  9995,2 54070  53.2185 344.2389 0001327  79.9407 280.1735 15.08847379 53662,6917.858,95.437,540.641,538.805,0.0
54070.0,STARLINK-5181,PAYLOAD,2023-10-09 16:08:17,15.08859056,0.0001391,53.2186,343.3433,81.1525,278.9625,0.00059016,9.122e-05,0.0,0 STARLINK-5181,1 54070U 22136V   23282.67242865  .00009122  00000-0  59016-3 0  9995,2 54070  53.2186 343.3433 0001391  81.1525 278.9625 15.08859056 53691,6917.822,95.436,540.649,538.725,0.0
54070.0,STARLINK-5181,PAYLOAD,2023-10-10 11:12:55,15.08851117,0.0001567,53.2186,339.7794,112.2021,247.9137,0.00030436,4.561e-05,0.0,0 STARLINK-5181,1 54070U 22136V   23283.46731014  .00004561  00000-0  30436-3 0  9999,2 54070  53.2186 339.7794 0001567 112.2021 247.9137 15.08851117 54293,6917.846,95.437,540.795,538.627,0.0
54070.0,STARLINK-5181,PAYLOAD,2023-10-10 14:23:41,15.08865346,0.0001321,53.2174,339.1808,90.4105,269.7039,0.0006644,0.00010309,0.0,0 STARLINK-5181,1 54070U 22136V   23283.59978618  .00010309  00000-0  66440-3 0  9997,2 54070  53.2174 339.1808 0001321  90.4105 269.7039 15.08865346 54313,6917.803,95.436,540.582,538.754,0.0
54070.0,STARLINK-5181,PAYLOAD,2023-10-11 03:06:47,15.08836697,0.0001788,53.2179,336.8021,80.8052,279.3143,0.00057093,8.809e-05,0.0,0 STARLINK-5181,1 54070U 22136V   23284.12971501  .00008809  00000-0  57093-3 0  9997,2 54070  53.2179 336.8021 0001788  80.8052 279.3143 15.08836697 54398,6917.89,95.438,540.992,538.519,0.0
54070.0,STARLINK-5181,PAYLOAD,2023-10-11 11:03:43,15.08831874,0.0001406,53.2178,335.3151,97.1933,262.9219,0.00063315,9.801e-05,0.0,0 STARLINK-5181,1 54070U 22136V   23284.46091837  .00009801  00000-0  63315-3 0  9996,2 54070  53.2178 335.3151 0001406  97.1933 262.9219 15.08831874 53967,6917.905,95.438,540.743,538.798,0.0
54070.0,STARLINK-5181,PAYLOAD,2023-10-11 20:36:02,15.08833935,0.0001686,53.2178,333.5313,80.4218,279.6965,0.0004605,7.047e-05,0.0,0 STARLINK-5181,1 54070U 22136V   23284.85836259  .00007047  00000-0  46050-3 0  9991,2 54070  53.2178 333.5313 0001686  80.4218 279.6965 15.08833935 54502,6917.899,95.438,540.93,538.598,0.0
